#dP2019  7 11  0  0  0.00000000      96 __u+U ITR00 FIT  IAC
## 2061 345600.00000000   900.00000000 58675 0.0000000000000
+   97   C02C03C05C06C07C08C09C10C11C12C13C14C16E01E02E03E04
+        E05E07E08E09E11E12E13E14E15E18E19E21E24E25E26E27E30
+        E31E33E36G01G02G03G04G05G06G07G08G09G10G11G12G13G14
+        G15G16G17G18G19G20G21G22G23G24G25G26G27G28G29G30G31
+        G32J01J02J03J07R01R02R03R04R05R07R08R09R10R11R12R13
+        R14R15R16R17R18R19R20R21R22R23R24R26  0  0  0  0  0
++        12 13 12  9  9  0  8  8  8  8  8  8  9  5  5  6  5
++         5  6  6  5  5  5  6  5  5  5  5  5  5  5  5  5  5
++         5  5  5  4  4  4  4  4  4  4  4  4  3  4  4  3  4
++         3  4  4  4  4  3  3  4  4  4  3  4  4  4  4  3  3
++         4  9 10  9 14  5  5  5  6  6  5  5  6  5  5  5  6
++         6  6  6  6  5  6  6  5  5  5  6  8  0  0  0  0  0
%c M  cc GPS ccc cccc cccc cccc cccc ccccc ccccc ccccc ccccc
%c cc cc ccc ccc cccc cccc cccc cccc ccccc ccccc ccccc ccccc
%f  0.0000000  0.000000000  0.00000000000  0.000000000000000
%f  0.0000000  0.000000000  0.00000000000  0.000000000000000
%i    0    0    0    0      0      0      0      0         0
%i    0    0    0    0      0      0      0      0         0
/*                                                          
/*   RSA / INFORMATION & ANALYSIS CENTER (IAC) OF MCC       
/*   ULTRA-RAPID DETERMINATION                              
/* PCV:IGS14_2056 OL/AL:FES2004  NONE     YN ORB:CoN CLK:CoN
*  2019 07 11 22 15  0.00000000
PC02   4391.405899  41902.491302  -1421.263796     41.033691
PC03 -14766.732291  39473.758318   -336.978400    732.150082
PC05  21963.057116  35950.514114  -1061.292947   -373.130497
PC06 -14995.469290  38238.363935  -8309.492073    554.344745
PC07  -9764.532795  24967.020016  32756.915294      2.590185
PC08      0.000000      0.000000      0.000000 999999.999999
PC09  -6279.430590  40988.515715   6746.766020   -194.402117
PC10   5722.392828  31852.411147  27384.010640     21.640757
PC11 -16394.188207  22624.073813    107.291447    229.214607
PC12 -17710.997514    318.122343  21641.780565    854.529300
PC13  -9832.344196  25695.860248 -31970.915515   -836.041579
PC14 -13640.504319   8475.618609 -22752.694999    533.988991
PC16 -13263.589792  39364.646709  -6654.506266   -893.439220
PE01   -457.793046  17569.231520  23820.318987   -645.064907
PE02    399.436174 -17588.088510 -23804.658603     68.855239
PE03   3370.648808 -28767.815291   6066.933429   -187.199386
PE04   9457.956242  25299.330310  12126.369093   -321.344257
PE05  14320.245823 -15398.925965  20838.891220   -467.268365
PE07 -16830.871125  -6888.871917 -23338.607005   -224.581125
PE08  -9633.951803 -25151.223138 -12251.903163   6325.517459
PE09  16760.928430   6747.698258  23461.341108   6381.737259
PE11  23921.715527  -1535.606915 -17386.817547   5656.176832
PE12   8443.317452  14043.938203 -24652.537167   6302.865107
PE13 -23808.022524   1580.511726  17514.021459    389.839669
PE14  -7888.766739  26402.660059  -2451.294748   -639.207149
PE15  -8806.939457 -13721.373222  24706.732256    903.558507
PE18  17784.467551 -21192.180608 -10506.010081   -734.920731
PE19  -4548.703929  28161.899222  -7888.427512     -5.219090
PE21 -19672.778214   5561.493808  21400.731637   -543.666133
PE24  27189.382696   9646.511289  -6611.017100   5982.104347
PE25  19740.881678  -5494.127003 -21359.014945   1745.565882
PE26 -25007.010192  15840.959903    -35.923431   4351.436047
PE27 -27233.385088  -9696.468766   6353.755698    431.025909
PE30 -18812.983246 -19318.418940 -12216.849495   4718.521494
PE31  18792.624885  19233.054267  12395.233457   -466.391920
PE33 -11387.546363  21022.041058 -17446.862704   -469.837092
PE36  24902.991333 -16005.357278    -30.846149    688.697189
PG01   3885.705312  14462.894332 -22133.246075    -64.713937
PG02  17543.681785 -15110.983820  13488.737164   -257.975708
PG03  11099.375751  22100.509427  -9854.724693    181.617388
PG04  14020.023775   6082.508395  21737.343558    170.912359
PG05   7271.200369 -14151.346496  21115.058573      0.087631
PG06  25826.137459  -6260.623643    494.699097    152.352839
PG07  18861.785449   8449.418624  17215.711745    -62.441166
PG08  -4460.349231  25700.503131  -4351.426248   -150.845044
PG09  10848.706288  13617.382695  20016.098758    372.939142
PG10 -20763.029999  -6858.378076 -15154.046959    -12.942921
PG11    381.671196  18866.965728 -19314.273168   -563.513797
PG12  -7700.118814 -22503.291760 -12206.963134    224.786536
PG13  12960.451374 -22868.976181   3487.488150    -55.055954
PG14 -16871.674984  12695.056250 -15673.597709    -71.977488
PG15   1454.401029 -25860.004185  -5118.957512   -301.507868
PG16  -8286.147819  12738.475380  21536.866300    -55.424509
PG17  16036.691715  -4515.298777 -20258.317073     87.028427
PG18  -5868.682874  16600.356697 -20351.631911     69.106378
PG19  17220.202592 -10870.512248 -17386.559188   -295.372628
PG20 -22542.761455 -12645.288944  -6575.121630    525.897159
PG21 -22100.297405  -4532.371492  14676.889714   -156.496619
PG22   5433.981745  20821.551168 -15396.931300   -729.754571
PG23   2635.243325  23320.270589  12382.940702   -177.687178
PG24  -1064.741663 -15949.266272 -21338.326779    -68.700984
PG25 -17724.496569 -19960.261393   -696.100449   -772.679797
PG26 -16029.841681   4685.924321  20669.406784    248.905808
PG27 -12150.879261  22139.976801   7595.518723   -182.277379
PG28  19519.724651   8979.375485 -14944.709427    766.568548
PG29  -6860.577968 -17235.150044  18966.396196    153.860318
PG30  25261.132139   1599.331594   8401.914262   -141.263964
PG31 -25860.711955   6686.727694   2229.188202     24.957034
PG32 -16411.687748   5279.474475 -20107.434913     -6.802549
PJ01 -19746.327234  23382.953698 -24395.541361   -274.274206
PJ02 -28730.503712  21328.485753  27050.290531     -1.052561
PJ03 -30108.126600  27834.059064  14551.064060      1.920664
PJ07 -25376.665869  33673.250225    -46.460512     -0.067318
PR01   9974.062644  22203.534973   7664.566911     46.587721
PR02  11998.995041   4883.029037  22007.015777    377.854652
PR03   6586.216718 -13690.641912  20547.816284     -1.871867
PR04  -3041.355813 -24437.112196   6703.131591    313.442508
PR05 -10319.944357 -21076.026031 -10007.198919     31.719934
PR07  -6329.939389  14112.078409 -20233.077826    -23.272171
PR08   2648.629048  24270.441432  -7320.081791     16.790874
PR09 -24242.498062  -3152.349928   7168.879364     79.627466
PR10 -15901.602180   4699.180813  19331.772721     54.187182
PR11   2927.098062  11994.426799  22344.776276    -72.377070
PR12  18775.157559  11500.706842  12895.974669     42.770816
PR13  24669.358140   4100.507670  -5071.812996    -25.809087
PR14  15854.621894  -5116.833088 -19310.112539     40.847983
PR15  -1958.544831 -11634.509150 -22592.537347    103.029977
PR16 -19136.377037 -11259.243107 -12678.436814      7.578028
PR17  18927.656143 -16907.757891  -2351.616378    242.880362
PR18  10163.121048 -18728.474564  14072.805281     -0.089167
PR19  -3781.956953 -10514.054042  22923.995199    -41.510784
PR20 -17268.026000   4942.770969  18091.479030   -384.017473
PR21 -18783.831042  17199.465725   1649.785008    -59.242513
PR22  -8010.618543  17868.226346 -16276.365300    -28.001412
PR23   8522.321158   6315.048884 -23211.670570    240.066688
PR24  17967.674385  -6767.186359 -16832.675849   -182.510310
PR26 -15825.639472   2864.883342  19814.635116    -17.045923
EOF
